{
    "links": {
        "self": "http://www.neowsapp.com/rest/v1/neo/3558197?api_key=iIulBulltgU6a56xZRHN4H3l9WmuAYTsLGpBGhQ2"
    },
    "id": "3558197",
    "neo_reference_id": "3558197",
    "name": "(2011 EC)",
    "designation": "2011 EC",
    "nasa_jpl_url": "http://ssd.jpl.nasa.gov/sbdb.cgi?sstr=3558197",
    "absolute_magnitude_h": 25.5,
    "estimated_diameter": {
        "kilometers": {
            "estimated_diameter_min": 0.0211132445,
            "estimated_diameter_max": 0.0472106499
        },
        "meters": {
            "estimated_diameter_min": 21.113244479,
            "estimated_diameter_max": 47.2106498806
        },
        "miles": {
            "estimated_diameter_min": 0.0131191578,
            "estimated_diameter_max": 0.0293353287
        },
        "feet": {
            "estimated_diameter_min": 69.2691770164,
            "estimated_diameter_max": 154.8905885541
        }
    },
    "is_potentially_hazardous_asteroid": false,
    "close_approach_data": [
        {
            "close_approach_date": "2011-03-06",
            "close_approach_date_full": "2011-Mar-06 11:07",
            "epoch_date_close_approach": 1299409620000,
            "relative_velocity": {
                "kilometers_per_second": "7.5509206808",
                "kilometers_per_hour": "27183.314450809",
                "miles_per_hour": "16890.6544708374"
            },
            "miss_distance": {
                "astronomical": "0.0237257441",
                "lunar": "9.2293144549",
                "kilometers": "3549320.781525067",
                "miles": "2205445.6657652446"
            },
            "orbiting_body": "Earth"
        },
        {
            "close_approach_date": "2041-02-14",
            "close_approach_date_full": "2041-Feb-14 20:18",
            "epoch_date_close_approach": 2244485880000,
            "relative_velocity": {
                "kilometers_per_second": "9.8142769977",
                "kilometers_per_hour": "35331.397191738",
                "miles_per_hour": "21953.5562161663"
            },
            "miss_distance": {
                "astronomical": "0.0831233916",
                "lunar": "32.3349993324",
                "kilometers": "12435082.330535892",
                "miles": "7726801.8636316296"
            },
            "orbiting_body": "Mars"
        }
    ],
    "orbital_data": {
        "orbit_id": "9",
        "orbit_determination_date": "2017-04-06 08:54:20",
        "first_observation_date": "2011-02-02",
        "last_observation_date": "2011-03-06",
        "data_arc_in_days": 32,
        "observations_used": 29,
        "orbit_uncertainty": "7",
        "minimum_orbit_intersection": ".00105727",
        "jupiter_tisserand_invariant": "4.458",
        "epoch_osculation": "2459000.5",
        "eccentricity": ".3637869488842082",
        "semi_major_axis": "1.50534269864856",
        "inclination": "1.080664441521564",
        "ascending_node_longitude": "167.6129364978192",
        "orbital_period": "674.6080162838847",
        "perihelion_distance": ".9577186712820805",
        "perihelion_argument": "33.44916286550461",
        "aphelion_distance": "2.05296672601504",
        "perihelion_time": "2459029.089727913749",
        "mean_anomaly": "344.7432852849194",
        "mean_motion": ".5336432288235763",
        "equinox": "J2000",
        "orbit_class": {
            "orbit_class_type": "APO",
            "orbit_class_description": "Near-Earth asteroid orbits which cross the Earth’s orbit similar to that of 1862 Apollo",
            "orbit_class_range": "a (semi-major axis) > 1.0 AU; q (perihelion) < 1.017 AU"
        }
    },
    "is_sentry_object": false
}